[{"OBJECT_NAME":"STARLINK-5838","OBJECT_ID":"2023-088AB","EPOCH":"2026-03-09T22:00:01.999584","MEAN_MOTION":15.09602828,"ECCENTRICITY":0.00011465,"INCLINATION":43.0011,"RA_OF_ASC_NODE":93.5912,"ARG_OF_PERICENTER":280.4736,"MEAN_ANOMALY":298.1595,"EPHEMERIS_TYPE":0,"CLASSIFICATION_TYPE":"U","NORAD_CAT_ID":57073,"ELEMENT_SET_NO":999,"REV_AT_EPOCH":567,"BSTAR":0.0030416892,"MEAN_MOTION_DOT":0.00049865,"MEAN_MOTION_DDOT":0},{"OBJECT_NAME":"TITAN 3C TRANSTAGE DEB","OBJECT_ID":"1965-082PP","EPOCH":"2026-03-08T23:49:16.681152","MEAN_MOTION":15.10619215,"ECCENTRICITY":0.0014169,"INCLINATION":32.2612,"RA_OF_ASC_NODE":312.9247,"ARG_OF_PERICENTER":37.7873,"MEAN_ANOMALY":322.3781,"EPHEMERIS_TYPE":0,"CLASSIFICATION_TYPE":"U","NORAD_CAT_ID":3454,"ELEMENT_SET_NO":999,"REV_AT_EPOCH":23071,"BSTAR":0.00075143557,"MEAN_MOTION_DOT":0.00012814,"MEAN_MOTION_DDOT":0}]
